{
  "norad_id": 68619,
  "name": "STARLINK-37226",
  "history": [
    {
      "epoch": "2026-04-16T22:07:24.314016Z",
      "apogee_km": 328.7577801449088,
      "perigee_km": 327.07308565271614,
      "latitude_deg": -7.622082660002851e-05,
      "longitude_deg": 127.64612633315576,
      "height_km": 330.8076687540246,
      "semi_major_axis_km": 6706.052432898812,
      "eccentricity": 0.00012561,
      "inclination_deg": 97.2849,
      "raan_deg": 304.56,
      "arg_perigee_deg": 70.4551,
      "mean_anomaly_deg": 289.6852,
      "mean_motion_rev_day": 15.80892521
    }
  ]
}