STARLINK-37226          
1 68619U 26073T   26106.92180919 -.00023490  00000+0 -12179-3 0  9994
2 68619  97.2849 304.5600 0001256  70.4551 289.6852 15.80892521  1579
